IRIDIUM 921             
1 24873U 97034E   24226.12424933  .00116392  00000+0  25341-2 0  9999
2 24873  86.3755 259.8284 0004798  69.8090 290.3682 15.43844777483957
IRIDIUM 26              
1 24903U 97043A   24226.31135302  .00001319  00000+0  44321-3 0  9995
2 24903  86.3923 239.7788 0002422  86.6550 273.4924 14.36482807412534
IRIDIUM 22              
1 24907U 97043E   24226.48098209  .00001500  00000+0  51633-3 0  9997
2 24907  86.3923 242.9903 0002260  91.2701 268.8754 14.35369163412620
DUMMY MASS 1            
1 24925U 97048A   24226.42047330  .00001185  00000+0  13138-3 0  9992
2 24925  86.3317 277.5415 0008029 141.6497 218.5299 14.86336709459409
DUMMY MASS 2            
1 24926U 97048B   24226.60109034  .00001470  00000+0  16466-3 0  9997
2 24926  86.3317 279.0119 0008442 152.0855 208.0824 14.86096410459210
IRIDIUM 29              
1 24944U 97051A   24226.39617534  .00001168  00000+0  39688-3 0  9991
2 24944  86.3920 272.9163 0002259  99.0122 261.1331 14.35820999409093
IRIDIUM 33              
1 24946U 97051C   24226.40726433  .00000774  00000+0  26795-3 0  9991
2 24946  86.3834 272.1594 0008262  18.8219 341.3281 14.34450040408612
IRIDIUM 28              
1 24948U 97051E   24226.57103000  .00001486  00000+0  49714-3 0  9997
2 24948  86.3923 270.5317 0002404  81.9594 278.1876 14.36779078409667
